{
  "norad_id": 64248,
  "name": "STARLINK-34234",
  "history": [
    {
      "epoch": "2026-03-28T16:24:04.292064Z",
      "apogee_km": 483.64429810061483,
      "perigee_km": 482.2844278104776,
      "latitude_deg": 3.23940060696544e-05,
      "longitude_deg": 127.70964207086918,
      "height_km": 482.63201492674597,
      "semi_major_axis_km": 6861.101362955546,
      "eccentricity": 9.91e-05,
      "inclination_deg": 43.0023,
      "raan_deg": 199.8278,
      "arg_perigee_deg": 279.2209,
      "mean_anomaly_deg": 80.8531,
      "mean_motion_rev_day": 15.27608298
    },
    {
      "epoch": "2026-03-29T00:14:51.400032Z",
      "apogee_km": 483.1828599629298,
      "perigee_km": 482.7684487586057,
      "latitude_deg": -1.4872602784764152e-06,
      "longitude_deg": 7.843181650037164,
      "height_km": 482.74631335838137,
      "semi_major_axis_km": 6861.112654360767,
      "eccentricity": 3.02e-05,
      "inclination_deg": 43.0009,
      "raan_deg": 197.9799,
      "arg_perigee_deg": 271.4241,
      "mean_anomaly_deg": 88.6576,
      "mean_motion_rev_day": 15.27604527
    },
    {
      "epoch": "2026-03-29T08:05:38.272992Z",
      "apogee_km": 483.6695225232352,
      "perigee_km": 482.3428518765586,
      "latitude_deg": 2.3075885194163326e-05,
      "longitude_deg": -112.02003428097544,
      "height_km": 483.0269017069702,
      "semi_major_axis_km": 6861.143187199897,
      "eccentricity": 9.668e-05,
      "inclination_deg": 43.0002,
      "raan_deg": 196.1342,
      "arg_perigee_deg": 248.3748,
      "mean_anomaly_deg": 111.7001,
      "mean_motion_rev_day": 15.2759433
    },
    {
      "epoch": "2026-03-30T13:54:35.234208Z",
      "apogee_km": 483.42059330254415,
      "perigee_km": 482.33682726094867,
      "latitude_deg": -3.0684825045966774e-05,
      "longitude_deg": 152.50207867081207,
      "height_km": 482.95595974515055,
      "semi_major_axis_km": 6861.015710281746,
      "eccentricity": 7.898e-05,
      "inclination_deg": 42.9999,
      "raan_deg": 189.1182,
      "arg_perigee_deg": 236.2242,
      "mean_anomaly_deg": 123.8534,
      "mean_motion_rev_day": 15.27636904
    },
    {
      "epoch": "2026-03-30T15:28:44.553504Z",
      "apogee_km": 484.86055292671335,
      "perigee_km": 481.1585526926792,
      "latitude_deg": 1.2783716546825532e-05,
      "longitude_deg": 128.5289476760893,
      "height_km": 482.69403122877105,
      "semi_major_axis_km": 6861.146552809696,
      "eccentricity": 0.00026978,
      "inclination_deg": 42.999,
      "raan_deg": 188.7483,
      "arg_perigee_deg": 272.8824,
      "mean_anomaly_deg": 87.1719,
      "mean_motion_rev_day": 15.27593206
    },
    {
      "epoch": "2026-03-31T13:26:57.518880Z",
      "apogee_km": 483.93714721411834,
      "perigee_km": 482.16970456041054,
      "latitude_deg": -1.0234966336299834e-05,
      "longitude_deg": 152.90431507315577,
      "height_km": 482.7202977920512,
      "semi_major_axis_km": 6861.190425887265,
      "eccentricity": 0.0001288,
      "inclination_deg": 43.0015,
      "raan_deg": 183.58,
      "arg_perigee_deg": 277.1446,
      "mean_anomaly_deg": 82.9259,
      "mean_motion_rev_day": 15.27578554
    }
  ]
}